HULIANWANG DIGUI-108    
1 66918U 25285D   26203.93631165 -.00000107  00000+0  36530-4 0  9998
2 66918  50.0064  17.7831 0000921  65.4629 294.6339 13.29326052 30819
HULIANWANG DIGUI-109    
1 66919U 25285E   26204.15343696 -.00000113  00000+0  22993-4 0  9998
2 66919  50.0090  16.9767 0000872  75.6827 284.4142 13.29316778 30853
HULIANWANG DIGUI-110    
1 66920U 25285F   26204.22036312 -.00000095  00000+0  62671-4 0  9998
2 66920  50.0122  16.7228 0000864  66.0953 294.0010 13.29326708 30851
HULIANWANG DIGUI-111    
1 66921U 25285G   26203.53543346 -.00000102  00000+0  47018-4 0  9999
2 66921  50.0138  19.1367 0000871  65.5627 294.5336 13.29326169 30767
HULIANWANG DIGUI-112    
1 66922U 25285H   26204.20365268 -.00000115  00000+0  19253-4 0  9994
2 66922  50.0101  16.6006 0000922  63.9078 296.1889 13.29326038 30855
HULIANWANG DIGUI-113    
1 66923U 25285J   26203.81951525 -.00000102  00000+0  47710-4 0  9993
2 66923  50.0111  17.9230 0000931  61.9138 298.1828 13.29324547 30808
HULIANWANG DIGUI-114    
1 66953U 25287A   26204.17829215  .00000010  00000+0 -11366-4 0  9994
2 66953  86.4920 270.2056 0002250  95.0443 265.0948 13.24413792 30100
HULIANWANG DIGUI-115    
1 66954U 25287B   26204.17050760  .00000012  00000+0 -71438-5 0  9995
2 66954  86.4936 270.2386 0002490  91.2225 268.9195 13.24401300 30104
HULIANWANG DIGUI-116    
1 66955U 25287C   26204.16319019  .00000014  00000+0 -11902-5 0  9992
2 66955  86.4876 270.0970 0002316  92.4018 267.7382 13.24413477 30108
HULIANWANG DIGUI-117    
1 66956U 25287D   26204.15566975  .00000026  00000+0  26714-4 0  9995
2 66956  86.4937 270.2330 0000700  83.1093 277.0120 13.24413166 30103
HULIANWANG DIGUI-118    
1 66957U 25287E   26204.14810801  .00000039  00000+0  56495-4 0  9998
2 66957  86.4913 270.1744 0002300  94.3187 265.8210 13.24412612 30102
HULIANWANG DIGUI-119    
1 67059U 25295A   26204.16746986 -.00000090  00000+0  74218-4 0  9996
2 67059  50.0024 256.7391 0001126 221.3474 138.7313 13.29325063 30289
HULIANWANG DIGUI-120    
1 67060U 25295B   26204.15077380 -.00000091  00000+0  71332-4 0  9997
2 67060  50.0031 256.6626 0001185 222.3855 137.6926 13.29324947 30286
HULIANWANG DIGUI-121    
1 67061U 25295C   26203.85839502 -.00000092  00000+0  68452-4 0  9996
2 67061  49.9992 257.7084 0001163 219.0240 141.0549 13.29326294 30240
HULIANWANG DIGUI-122    
1 67062U 25295D   26204.14234185 -.00000089  00000+0  75678-4 0  9990
2 67062  50.0025 256.6087 0001166 220.0109 140.0678 13.29324886 30282
HULIANWANG DIGUI-123    
1 67063U 25295E   26203.60779118 -.00000094  00000+0  65346-4 0  9998
2 67063  50.0026 258.4567 0001081 219.9256 140.1536 13.29324443 30219
