{"fetched_at":"2026-07-23T17:55:34.243Z","source":"https://celestrak.org/NORAD/elements/gp.php?NAME=HULIANWANG&FORMAT=JSON","constellation":"guowang","records":[{"OBJECT_NAME":"HULIANWANG DIGUI-108","OBJECT_ID":"2025-285D","EPOCH":"2026-07-22T22:28:17.326560","CLASSIFICATION_TYPE":"U","MEAN_MOTION":13.29326052,"ECCENTRICITY":0.00009215,"INCLINATION":50.0064,"RA_OF_ASC_NODE":17.7831,"ARG_OF_PERICENTER":65.4629,"MEAN_ANOMALY":294.6339,"EPHEMERIS_TYPE":0,"NORAD_CAT_ID":66918,"ELEMENT_SET_NO":999,"REV_AT_EPOCH":3081,"BSTAR":0.000036529787,"MEAN_MOTION_DOT":-0.00000107,"MEAN_MOTION_DDOT":0},{"OBJECT_NAME":"HULIANWANG DIGUI-109","OBJECT_ID":"2025-285E","EPOCH":"2026-07-23T03:40:56.953344","CLASSIFICATION_TYPE":"U","MEAN_MOTION":13.29316778,"ECCENTRICITY":0.00008722,"INCLINATION":50.009,"RA_OF_ASC_NODE":16.9767,"ARG_OF_PERICENTER":75.6827,"MEAN_ANOMALY":284.4142,"EPHEMERIS_TYPE":0,"NORAD_CAT_ID":66919,"ELEMENT_SET_NO":999,"REV_AT_EPOCH":3085,"BSTAR":0.000022992742,"MEAN_MOTION_DOT":-0.00000113,"MEAN_MOTION_DDOT":0},{"OBJECT_NAME":"HULIANWANG DIGUI-110","OBJECT_ID":"2025-285F","EPOCH":"2026-07-23T05:17:19.373568","CLASSIFICATION_TYPE":"U","MEAN_MOTION":13.29326708,"ECCENTRICITY":0.0000864,"INCLINATION":50.0122,"RA_OF_ASC_NODE":16.7228,"ARG_OF_PERICENTER":66.0953,"MEAN_ANOMALY":294.001,"EPHEMERIS_TYPE":0,"NORAD_CAT_ID":66920,"ELEMENT_SET_NO":999,"REV_AT_EPOCH":3085,"BSTAR":0.000062670639,"MEAN_MOTION_DOT":-9.5e-7,"MEAN_MOTION_DDOT":0},{"OBJECT_NAME":"HULIANWANG DIGUI-111","OBJECT_ID":"2025-285G","EPOCH":"2026-07-22T12:51:01.450944","CLASSIFICATION_TYPE":"U","MEAN_MOTION":13.29326169,"ECCENTRICITY":0.00008717,"INCLINATION":50.0138,"RA_OF_ASC_NODE":19.1367,"ARG_OF_PERICENTER":65.5627,"MEAN_ANOMALY":294.5336,"EPHEMERIS_TYPE":0,"NORAD_CAT_ID":66921,"ELEMENT_SET_NO":999,"REV_AT_EPOCH":3076,"BSTAR":0.000047018121,"MEAN_MOTION_DOT":-0.00000102,"MEAN_MOTION_DDOT":0},{"OBJECT_NAME":"HULIANWANG DIGUI-112","OBJECT_ID":"2025-285H","EPOCH":"2026-07-23T04:53:15.591552","CLASSIFICATION_TYPE":"U","MEAN_MOTION":13.29326038,"ECCENTRICITY":0.00009227,"INCLINATION":50.0101,"RA_OF_ASC_NODE":16.6006,"ARG_OF_PERICENTER":63.9078,"MEAN_ANOMALY":296.1889,"EPHEMERIS_TYPE":0,"NORAD_CAT_ID":66922,"ELEMENT_SET_NO":999,"REV_AT_EPOCH":3085,"BSTAR":0.000019252792,"MEAN_MOTION_DOT":-0.00000115,"MEAN_MOTION_DDOT":0},{"OBJECT_NAME":"HULIANWANG DIGUI-113","OBJECT_ID":"2025-285J","EPOCH":"2026-07-22T19:40:06.117600","CLASSIFICATION_TYPE":"U","MEAN_MOTION":13.29324547,"ECCENTRICITY":0.00009311,"INCLINATION":50.0111,"RA_OF_ASC_NODE":17.923,"ARG_OF_PERICENTER":61.9138,"MEAN_ANOMALY":298.1828,"EPHEMERIS_TYPE":0,"NORAD_CAT_ID":66923,"ELEMENT_SET_NO":999,"REV_AT_EPOCH":3080,"BSTAR":0.000047710038,"MEAN_MOTION_DOT":-0.00000102,"MEAN_MOTION_DDOT":0},{"OBJECT_NAME":"HULIANWANG DIGUI-114","OBJECT_ID":"2025-287A","EPOCH":"2026-07-23T04:16:44.441760","CLASSIFICATION_TYPE":"U","MEAN_MOTION":13.24413792,"ECCENTRICITY":0.00022508,"INCLINATION":86.492,"RA_OF_ASC_NODE":270.2056,"ARG_OF_PERICENTER":95.0443,"MEAN_ANOMALY":265.0948,"EPHEMERIS_TYPE":0,"NORAD_CAT_ID":66953,"ELEMENT_SET_NO":999,"REV_AT_EPOCH":3010,"BSTAR":-0.000011365864,"MEAN_MOTION_DOT":1e-7,"MEAN_MOTION_DDOT":0},{"OBJECT_NAME":"HULIANWANG DIGUI-115","OBJECT_ID":"2025-287B","EPOCH":"2026-07-23T04:05:31.856640","CLASSIFICATION_TYPE":"U","MEAN_MOTION":13.244013,"ECCENTRICITY":0.00024905,"INCLINATION":86.4936,"RA_OF_ASC_NODE":270.2386,"ARG_OF_PERICENTER":91.2225,"MEAN_ANOMALY":268.9195,"EPHEMERIS_TYPE":0,"NORAD_CAT_ID":66954,"ELEMENT_SET_NO":999,"REV_AT_EPOCH":3010,"BSTAR":-0.000007143808,"MEAN_MOTION_DOT":1.2e-7,"MEAN_MOTION_DDOT":0},{"OBJECT_NAME":"HULIANWANG DIGUI-116","OBJECT_ID":"2025-287C","EPOCH":"2026-07-23T03:54:59.632416","CLASSIFICATION_TYPE":"U","MEAN_MOTION":13.24413477,"ECCENTRICITY":0.00023167,"INCLINATION":86.4876,"RA_OF_ASC_NODE":270.097,"ARG_OF_PERICENTER":92.4018,"MEAN_ANOMALY":267.7382,"EPHEMERIS_TYPE":0,"NORAD_CAT_ID":66955,"ELEMENT_SET_NO":999,"REV_AT_EPOCH":3010,"BSTAR":-0.000001190232,"MEAN_MOTION_DOT":1.4e-7,"MEAN_MOTION_DDOT":0},{"OBJECT_NAME":"HULIANWANG DIGUI-117","OBJECT_ID":"2025-287D","EPOCH":"2026-07-23T03:44:09.866400","CLASSIFICATION_TYPE":"U","MEAN_MOTION":13.24413166,"ECCENTRICITY":0.00007001,"INCLINATION":86.4937,"RA_OF_ASC_NODE":270.233,"ARG_OF_PERICENTER":83.1093,"MEAN_ANOMALY":277.012,"EPHEMERIS_TYPE":0,"NORAD_CAT_ID":66956,"ELEMENT_SET_NO":999,"REV_AT_EPOCH":3010,"BSTAR":0.000026713592,"MEAN_MOTION_DOT":2.6e-7,"MEAN_MOTION_DDOT":0},{"OBJECT_NAME":"HULIANWANG DIGUI-118","OBJECT_ID":"2025-287E","EPOCH":"2026-07-23T03:33:16.532064","CLASSIFICATION_TYPE":"U","MEAN_MOTION":13.24412612,"ECCENTRICITY":0.00023006,"INCLINATION":86.4913,"RA_OF_ASC_NODE":270.1744,"ARG_OF_PERICENTER":94.3187,"MEAN_ANOMALY":265.821,"EPHEMERIS_TYPE":0,"NORAD_CAT_ID":66957,"ELEMENT_SET_NO":999,"REV_AT_EPOCH":3010,"BSTAR":0.000056494868,"MEAN_MOTION_DOT":3.9e-7,"MEAN_MOTION_DDOT":0},{"OBJECT_NAME":"HULIANWANG DIGUI-119","OBJECT_ID":"2025-295A","EPOCH":"2026-07-23T04:01:09.395904","CLASSIFICATION_TYPE":"U","MEAN_MOTION":13.29325063,"ECCENTRICITY":0.00011267,"INCLINATION":50.0024,"RA_OF_ASC_NODE":256.7391,"ARG_OF_PERICENTER":221.3474,"MEAN_ANOMALY":138.7313,"EPHEMERIS_TYPE":0,"NORAD_CAT_ID":67059,"ELEMENT_SET_NO":999,"REV_AT_EPOCH":3028,"BSTAR":0.000074217922,"MEAN_MOTION_DOT":-9e-7,"MEAN_MOTION_DDOT":0},{"OBJECT_NAME":"HULIANWANG DIGUI-120","OBJECT_ID":"2025-295B","EPOCH":"2026-07-23T03:37:06.856320","CLASSIFICATION_TYPE":"U","MEAN_MOTION":13.29324947,"ECCENTRICITY":0.00011857,"INCLINATION":50.0031,"RA_OF_ASC_NODE":256.6626,"ARG_OF_PERICENTER":222.3855,"MEAN_ANOMALY":137.6926,"EPHEMERIS_TYPE":0,"NORAD_CAT_ID":67060,"ELEMENT_SET_NO":999,"REV_AT_EPOCH":3028,"BSTAR":0.000071331791,"MEAN_MOTION_DOT":-9.1e-7,"MEAN_MOTION_DDOT":0},{"OBJECT_NAME":"HULIANWANG DIGUI-121","OBJECT_ID":"2025-295C","EPOCH":"2026-07-22T20:36:05.329728","CLASSIFICATION_TYPE":"U","MEAN_MOTION":13.29326294,"ECCENTRICITY":0.00011632,"INCLINATION":49.9992,"RA_OF_ASC_NODE":257.7084,"ARG_OF_PERICENTER":219.024,"MEAN_ANOMALY":141.0549,"EPHEMERIS_TYPE":0,"NORAD_CAT_ID":67061,"ELEMENT_SET_NO":999,"REV_AT_EPOCH":3024,"BSTAR":0.000068451595,"MEAN_MOTION_DOT":-9.2e-7,"MEAN_MOTION_DDOT":0},{"OBJECT_NAME":"HULIANWANG DIGUI-122","OBJECT_ID":"2025-295D","EPOCH":"2026-07-23T03:24:58.335840","CLASSIFICATION_TYPE":"U","MEAN_MOTION":13.29324886,"ECCENTRICITY":0.0001166,"INCLINATION":50.0025,"RA_OF_ASC_NODE":256.6087,"ARG_OF_PERICENTER":220.0109,"MEAN_ANOMALY":140.0678,"EPHEMERIS_TYPE":0,"NORAD_CAT_ID":67062,"ELEMENT_SET_NO":999,"REV_AT_EPOCH":3028,"BSTAR":0.00007567801,"MEAN_MOTION_DOT":-8.9e-7,"MEAN_MOTION_DDOT":0},{"OBJECT_NAME":"HULIANWANG DIGUI-123","OBJECT_ID":"2025-295E","EPOCH":"2026-07-22T14:35:13.157952","CLASSIFICATION_TYPE":"U","MEAN_MOTION":13.29324443,"ECCENTRICITY":0.00010812,"INCLINATION":50.0026,"RA_OF_ASC_NODE":258.4567,"ARG_OF_PERICENTER":219.9256,"MEAN_ANOMALY":140.1536,"EPHEMERIS_TYPE":0,"NORAD_CAT_ID":67063,"ELEMENT_SET_NO":999,"REV_AT_EPOCH":3021,"BSTAR":0.000065346355,"MEAN_MOTION_DOT":-9.4e-7,"MEAN_MOTION_DDOT":0}]}
